{
  "type": "FeatureCollection",
  "features": [
    {
      "type": "Feature",
      "properties": {
        "norad_id": 66829,
        "name": "STARLINK-36084",
        "group": "last-30-days",
        "lat": 3.4396353175900387,
        "lon": -156.83379854845836,
        "alt_km": 321.10745643601695,
        "timestamp": "2025-12-11T15:53:38.294988+00:00",
        "meta_object_name": "STARLINK-36084",
        "meta_object_id": "2025-280J",
        "meta_epoch": "2025-12-10T18:00:02.000160",
        "meta_mean_motion": 15.87176966,
        "meta_eccentricity": 0.000381,
        "meta_inclination": 69.9933,
        "meta_ra_of_asc_node": 204.5351,
        "meta_arg_of_pericenter": 271.3474,
        "meta_mean_anomaly": 286.9189,
        "meta_ephemeris_type": 0,
        "meta_classification_type": "U",
        "meta_norad_cat_id": 66829,
        "meta_element_set_no": 999,
        "meta_rev_at_epoch": 242,
        "meta_bstar": -0.0070441,
        "meta_mean_motion_dot": -0.0161503,
        "meta_mean_motion_ddot": 0,
        "tle_line1": "1 66829U 25280J   25344.75002315 -.01615030  00000+0 -70441-2 0  9994",
        "tle_line2": "2 66829  69.9933 204.5351 0003810 271.3474 286.9189 15.87176966  2429"
      },
      "geometry": {
        "type": "Point",
        "coordinates": [
          -156.83379854845836,
          3.4396353175900387
        ]
      }
    },
    {
      "type": "Feature",
      "properties": {
        "norad_id": 66830,
        "name": "STARLINK-35881",
        "group": "last-30-days",
        "lat": 6.940619393826596,
        "lon": -155.55114385091318,
        "alt_km": 320.6423493430266,
        "timestamp": "2025-12-11T15:53:38.294999+00:00",
        "meta_object_name": "STARLINK-35881",
        "meta_object_id": "2025-280K",
        "meta_epoch": "2025-12-10T18:00:02.000160",
        "meta_mean_motion": 15.8726419,
        "meta_eccentricity": 0.0003676,
        "meta_inclination": 69.993,
        "meta_ra_of_asc_node": 204.5307,
        "meta_arg_of_pericenter": 269.9668,
        "meta_mean_anomaly": 291.7888,
        "meta_ephemeris_type": 0,
        "meta_classification_type": "U",
        "meta_norad_cat_id": 66830,
        "meta_element_set_no": 999,
        "meta_rev_at_epoch": 258,
        "meta_bstar": -0.0070807,
        "meta_mean_motion_dot": -0.01628378,
        "meta_mean_motion_ddot": 0,
        "tle_line1": "1 66830U 25280K   25344.75002315 -.01628378  00000+0 -70807-2 0  9991",
        "tle_line2": "2 66830  69.9930 204.5307 0003676 269.9668 291.7888 15.87264190  2581"
      },
      "geometry": {
        "type": "Point",
        "coordinates": [
          -155.55114385091318,
          6.940619393826596
        ]
      }
    },
    {
      "type": "Feature",
      "properties": {
        "norad_id": 66831,
        "name": "STARLINK-35788",
        "group": "last-30-days",
        "lat": 8.527630843931275,
        "lon": -154.96302681456578,
        "alt_km": 320.4289220299761,
        "timestamp": "2025-12-11T15:53:38.295011+00:00",
        "meta_object_name": "STARLINK-35788",
        "meta_object_id": "2025-280L",
        "meta_epoch": "2025-12-10T18:00:02.000160",
        "meta_mean_motion": 15.87306963,
        "meta_eccentricity": 0.0003769,
        "meta_inclination": 69.9937,
        "meta_ra_of_asc_node": 204.5293,
        "meta_arg_of_pericenter": 268.9515,
        "meta_mean_anomaly": 294.362,
        "meta_ephemeris_type": 0,
        "meta_classification_type": "U",
        "meta_norad_cat_id": 66831,
        "meta_element_set_no": 999,
        "meta_rev_at_epoch": 258,
        "meta_bstar": -0.007078,
        "meta_mean_motion_dot": -0.01630974,
        "meta_mean_motion_ddot": 0,
        "tle_line1": "1 66831U 25280L   25344.75002315 -.01630974  00000+0 -70780-2 0  9997",
        "tle_line2": "2 66831  69.9937 204.5293 0003769 268.9515 294.3620 15.87306963  2584"
      },
      "geometry": {
        "type": "Point",
        "coordinates": [
          -154.96302681456578,
          8.527630843931275
        ]
      }
    },
    {
      "type": "Feature",
      "properties": {
        "norad_id": 66832,
        "name": "STARLINK-35768",
        "group": "last-30-days",
        "lat": 10.080715324604693,
        "lon": -154.38330461464724,
        "alt_km": 320.086522294072,
        "timestamp": "2025-12-11T15:53:38.295021+00:00",
        "meta_object_name": "STARLINK-35768",
        "meta_object_id": "2025-280M",
        "meta_epoch": "2025-12-10T18:00:02.000160",
        "meta_mean_motion": 15.87348269,
        "meta_eccentricity": 0.0003748,
        "meta_inclination": 69.9933,
        "meta_ra_of_asc_node": 204.527,
        "meta_arg_of_pericenter": 270.0502,
        "meta_mean_anomaly": 294.78,
        "meta_ephemeris_type": 0,
        "meta_classification_type": "U",
        "meta_norad_cat_id": 66832,
        "meta_element_set_no": 999,
        "meta_rev_at_epoch": 258,
        "meta_bstar": -0.0070597,
        "meta_mean_motion_dot": -0.01630187,
        "meta_mean_motion_ddot": 0,
        "tle_line1": "1 66832U 25280M   25344.75002315 -.01630187  00000+0 -70597-2 0  9990",
        "tle_line2": "2 66832  69.9933 204.5270 0003748 270.0502 294.7800 15.87348269  2582"
      },
      "geometry": {
        "type": "Point",
        "coordinates": [
          -154.38330461464724,
          10.080715324604693
        ]
      }
    },
    {
      "type": "Feature",
      "properties": {
        "norad_id": 66833,
        "name": "STARLINK-35858",
        "group": "last-30-days",
        "lat": 12.047921046164477,
        "lon": -153.6392632715104,
        "alt_km": 319.7592494787641,
        "timestamp": "2025-12-11T15:53:38.295031+00:00",
        "meta_object_name": "STARLINK-35858",
        "meta_object_id": "2025-280N",
        "meta_epoch": "2025-12-10T18:00:02.000160",
        "meta_mean_motion": 15.87387192,
        "meta_eccentricity": 0.0003729,
        "meta_inclination": 69.9935,
        "meta_ra_of_asc_node": 204.525,
        "meta_arg_of_pericenter": 270.7614,
        "meta_mean_anomaly": 296.0612,
        "meta_ephemeris_type": 0,
        "meta_classification_type": "U",
        "meta_norad_cat_id": 66833,
        "meta_element_set_no": 999,
        "meta_rev_at_epoch": 258,
        "meta_bstar": -0.0070772,
        "meta_mean_motion_dot": -0.01636461,
        "meta_mean_motion_ddot": 0,
        "tle_line1": "1 66833U 25280N   25344.75002315 -.01636461  00000+0 -70772-2 0  9997",
        "tle_line2": "2 66833  69.9935 204.5250 0003729 270.7614 296.0612 15.87387192  2587"
      },
      "geometry": {
        "type": "Point",
        "coordinates": [
          -153.6392632715104,
          12.047921046164477
        ]
      }
    },
    {
      "type": "Feature",
      "properties": {
        "norad_id": 66834,
        "name": "STARLINK-35840",
        "group": "last-30-days",
        "lat": 13.646863408394209,
        "lon": -153.02648865629135,
        "alt_km": 319.50714475113637,
        "timestamp": "2025-12-11T15:53:38.295041+00:00",
        "meta_object_name": "STARLINK-35840",
        "meta_object_id": "2025-280P",
        "meta_epoch": "2025-12-10T18:00:02.000160",
        "meta_mean_motion": 15.87432671,
        "meta_eccentricity": 0.0003772,
        "meta_inclination": 69.9932,
        "meta_ra_of_asc_node": 204.5228,
        "meta_arg_of_pericenter": 270.3164,
        "meta_mean_anomaly": 298.0805,
        "meta_ephemeris_type": 0,
        "meta_classification_type": "U",
        "meta_norad_cat_id": 66834,
        "meta_element_set_no": 999,
        "meta_rev_at_epoch": 258,
        "meta_bstar": -0.0070856,
        "meta_mean_motion_dot": -0.01641469,
        "meta_mean_motion_ddot": 0,
        "tle_line1": "1 66834U 25280P   25344.75002315 -.01641469  00000+0 -70856-2 0  9995",
        "tle_line2": "2 66834  69.9932 204.5228 0003772 270.3164 298.0805 15.87432671  2583"
      },
      "geometry": {
        "type": "Point",
        "coordinates": [
          -153.02648865629135,
          13.646863408394209
        ]
      }
    },
    {
      "type": "Feature",
      "properties": {
        "norad_id": 66835,
        "name": "STARLINK-35890",
        "group": "last-30-days",
        "lat": 15.430070552561716,
        "lon": -152.33214552847085,
        "alt_km": 319.22462520871613,
        "timestamp": "2025-12-11T15:53:38.295053+00:00",
        "meta_object_name": "STARLINK-35890",
        "meta_object_id": "2025-280Q",
        "meta_epoch": "2025-12-10T18:00:02.000160",
        "meta_mean_motion": 15.87476114,
        "meta_eccentricity": 0.0003721,
        "meta_inclination": 69.993,
        "meta_ra_of_asc_node": 204.5206,
        "meta_arg_of_pericenter": 269.9277,
        "meta_mean_anomaly": 300.2566,
        "meta_ephemeris_type": 0,
        "meta_classification_type": "U",
        "meta_norad_cat_id": 66835,
        "meta_element_set_no": 999,
        "meta_rev_at_epoch": 258,
        "meta_bstar": -0.0071042,
        "meta_mean_motion_dot": -0.01648284,
        "meta_mean_motion_ddot": 0,
        "tle_line1": "1 66835U 25280Q   25344.75002315 -.01648284  00000+0 -71042-2 0  9996",
        "tle_line2": "2 66835  69.9930 204.5206 0003721 269.9277 300.2566 15.87476114  2581"
      },
      "geometry": {
        "type": "Point",
        "coordinates": [
          -152.33214552847085,
          15.430070552561716
        ]
      }
    }
  ]
}